ONEWEB-0020             
1 45133U 20008C   24214.11944275  .00000405  00000+0  11254-2 0  9995
2 45133  87.8966 172.5199 0001941  86.3729 273.7621 13.10370378219403
ONEWEB-0021             
1 45134U 20008D   24213.90529433 -.00000339  00000+0 -10062-2 0  9991
2 45134  87.8970 172.5798 0002080  76.2292 283.9066 13.10370729218902
ONEWEB-0023             
1 45136U 20008F   24213.91773187 -.00000608  00000+0 -17793-2 0  9998
2 45136  87.8972 172.5666 0002440  86.0074 274.1332 13.10374407219082
ONEWEB-0024             
1 45137U 20008G   24214.11778639  .00000483  00000+0  13466-2 0  9991
2 45137  87.8960 172.5103 0002026  79.7098 280.4257 13.10371016219271
ONEWEB-0025             
1 45138U 20008H   24213.83059661 -.00000453  00000+0 -13335-2 0  9991
2 45138  87.8960 172.5672 0002227  79.2962 280.8416 13.10371407218815
ONEWEB-0026             
1 45139U 20008J   24213.93725813 -.00000121  00000+0 -37590-3 0  9994
2 45139  87.8998 157.4675 0001956  83.3946 276.7405 13.11415139221298
ONEWEB-0028             
1 45140U 20008K   24213.89232237 -.00000241  00000+0 -71507-3 0  9993
2 45140  87.8994 157.5144 0002592  69.6827 290.4579 13.11417906218802
ONEWEB-0032             
1 45141U 20008L   24213.92189235 -.00000521  00000+0 -15277-2 0  9999
2 45141  87.8965 172.5958 0002139  77.1697 282.9670 13.10375110219412
