<?xml version="1.0" encoding="UTF-8"?>
<ndm xmlns:xsi="http://www.w3.org/2001/XMLSchema-instance" xsi:noNamespaceSchemaLocation="https://sanaregistry.org/r/ndmxml_unqualified/ndmxml-2.0.0-master-2.0.xsd">
<omm id="CCSDS_OMM_VERS" version="2.0">
<header><CREATION_DATE/><ORIGINATOR/></header><body><segment><metadata><OBJECT_NAME>ONEWEB-0020</OBJECT_NAME><OBJECT_ID>2020-008C</OBJECT_ID><CENTER_NAME>EARTH</CENTER_NAME><REF_FRAME>TEME</REF_FRAME><TIME_SYSTEM>UTC</TIME_SYSTEM><MEAN_ELEMENT_THEORY>SGP4</MEAN_ELEMENT_THEORY></metadata><data><meanElements><EPOCH>2024-08-01T02:51:59.853600</EPOCH><MEAN_MOTION>13.10370378</MEAN_MOTION><ECCENTRICITY>.0001941</ECCENTRICITY><INCLINATION>87.8966</INCLINATION><RA_OF_ASC_NODE>172.5199</RA_OF_ASC_NODE><ARG_OF_PERICENTER>86.3729</ARG_OF_PERICENTER><MEAN_ANOMALY>273.7621</MEAN_ANOMALY></meanElements><tleParameters><EPHEMERIS_TYPE>0</EPHEMERIS_TYPE><CLASSIFICATION_TYPE>U</CLASSIFICATION_TYPE><NORAD_CAT_ID>45133</NORAD_CAT_ID><ELEMENT_SET_NO>999</ELEMENT_SET_NO><REV_AT_EPOCH>21940</REV_AT_EPOCH><BSTAR>.11254E-2</BSTAR><MEAN_MOTION_DOT>.405E-5</MEAN_MOTION_DOT><MEAN_MOTION_DDOT>0</MEAN_MOTION_DDOT></tleParameters></data></segment></body></omm>
<omm id="CCSDS_OMM_VERS" version="2.0">
<header><CREATION_DATE/><ORIGINATOR/></header><body><segment><metadata><OBJECT_NAME>ONEWEB-0021</OBJECT_NAME><OBJECT_ID>2020-008D</OBJECT_ID><CENTER_NAME>EARTH</CENTER_NAME><REF_FRAME>TEME</REF_FRAME><TIME_SYSTEM>UTC</TIME_SYSTEM><MEAN_ELEMENT_THEORY>SGP4</MEAN_ELEMENT_THEORY></metadata><data><meanElements><EPOCH>2024-07-31T21:43:37.430112</EPOCH><MEAN_MOTION>13.10370729</MEAN_MOTION><ECCENTRICITY>.000208</ECCENTRICITY><INCLINATION>87.8970</INCLINATION><RA_OF_ASC_NODE>172.5798</RA_OF_ASC_NODE><ARG_OF_PERICENTER>76.2292</ARG_OF_PERICENTER><MEAN_ANOMALY>283.9066</MEAN_ANOMALY></meanElements><tleParameters><EPHEMERIS_TYPE>0</EPHEMERIS_TYPE><CLASSIFICATION_TYPE>U</CLASSIFICATION_TYPE><NORAD_CAT_ID>45134</NORAD_CAT_ID><ELEMENT_SET_NO>999</ELEMENT_SET_NO><REV_AT_EPOCH>21890</REV_AT_EPOCH><BSTAR>-.10062E-2</BSTAR><MEAN_MOTION_DOT>-.339E-5</MEAN_MOTION_DOT><MEAN_MOTION_DDOT>0</MEAN_MOTION_DDOT></tleParameters></data></segment></body></omm>
<omm id="CCSDS_OMM_VERS" version="2.0">
<header><CREATION_DATE/><ORIGINATOR/></header><body><segment><metadata><OBJECT_NAME>ONEWEB-0023</OBJECT_NAME><OBJECT_ID>2020-008F</OBJECT_ID><CENTER_NAME>EARTH</CENTER_NAME><REF_FRAME>TEME</REF_FRAME><TIME_SYSTEM>UTC</TIME_SYSTEM><MEAN_ELEMENT_THEORY>SGP4</MEAN_ELEMENT_THEORY></metadata><data><meanElements><EPOCH>2024-07-31T22:01:32.033568</EPOCH><MEAN_MOTION>13.10374407</MEAN_MOTION><ECCENTRICITY>.000244</ECCENTRICITY><INCLINATION>87.8972</INCLINATION><RA_OF_ASC_NODE>172.5666</RA_OF_ASC_NODE><ARG_OF_PERICENTER>86.0074</ARG_OF_PERICENTER><MEAN_ANOMALY>274.1332</MEAN_ANOMALY></meanElements><tleParameters><EPHEMERIS_TYPE>0</EPHEMERIS_TYPE><CLASSIFICATION_TYPE>U</CLASSIFICATION_TYPE><NORAD_CAT_ID>45136</NORAD_CAT_ID><ELEMENT_SET_NO>999</ELEMENT_SET_NO><REV_AT_EPOCH>21908</REV_AT_EPOCH><BSTAR>-.17793E-2</BSTAR><MEAN_MOTION_DOT>-.608E-5</MEAN_MOTION_DOT><MEAN_MOTION_DDOT>0</MEAN_MOTION_DDOT></tleParameters></data></segment></body></omm>
<omm id="CCSDS_OMM_VERS" version="2.0">
<header><CREATION_DATE/><ORIGINATOR/></header><body><segment><metadata><OBJECT_NAME>ONEWEB-0024</OBJECT_NAME><OBJECT_ID>2020-008G</OBJECT_ID><CENTER_NAME>EARTH</CENTER_NAME><REF_FRAME>TEME</REF_FRAME><TIME_SYSTEM>UTC</TIME_SYSTEM><MEAN_ELEMENT_THEORY>SGP4</MEAN_ELEMENT_THEORY></metadata><data><meanElements><EPOCH>2024-08-01T02:49:36.744096</EPOCH><MEAN_MOTION>13.10371016</MEAN_MOTION><ECCENTRICITY>.0002026</ECCENTRICITY><INCLINATION>87.8960</INCLINATION><RA_OF_ASC_NODE>172.5103</RA_OF_ASC_NODE><ARG_OF_PERICENTER>79.7098</ARG_OF_PERICENTER><MEAN_ANOMALY>280.4257</MEAN_ANOMALY></meanElements><tleParameters><EPHEMERIS_TYPE>0</EPHEMERIS_TYPE><CLASSIFICATION_TYPE>U</CLASSIFICATION_TYPE><NORAD_CAT_ID>45137</NORAD_CAT_ID><ELEMENT_SET_NO>999</ELEMENT_SET_NO><REV_AT_EPOCH>21927</REV_AT_EPOCH><BSTAR>.13466E-2</BSTAR><MEAN_MOTION_DOT>.483E-5</MEAN_MOTION_DOT><MEAN_MOTION_DDOT>0</MEAN_MOTION_DDOT></tleParameters></data></segment></body></omm>
<omm id="CCSDS_OMM_VERS" version="2.0">
<header><CREATION_DATE/><ORIGINATOR/></header><body><segment><metadata><OBJECT_NAME>ONEWEB-0025</OBJECT_NAME><OBJECT_ID>2020-008H</OBJECT_ID><CENTER_NAME>EARTH</CENTER_NAME><REF_FRAME>TEME</REF_FRAME><TIME_SYSTEM>UTC</TIME_SYSTEM><MEAN_ELEMENT_THEORY>SGP4</MEAN_ELEMENT_THEORY></metadata><data><meanElements><EPOCH>2024-07-31T19:56:03.547104</EPOCH><MEAN_MOTION>13.10371407</MEAN_MOTION><ECCENTRICITY>.0002227</ECCENTRICITY><INCLINATION>87.8960</INCLINATION><RA_OF_ASC_NODE>172.5672</RA_OF_ASC_NODE><ARG_OF_PERICENTER>79.2962</ARG_OF_PERICENTER><MEAN_ANOMALY>280.8416</MEAN_ANOMALY></meanElements><tleParameters><EPHEMERIS_TYPE>0</EPHEMERIS_TYPE><CLASSIFICATION_TYPE>U</CLASSIFICATION_TYPE><NORAD_CAT_ID>45138</NORAD_CAT_ID><ELEMENT_SET_NO>999</ELEMENT_SET_NO><REV_AT_EPOCH>21881</REV_AT_EPOCH><BSTAR>-.13335E-2</BSTAR><MEAN_MOTION_DOT>-.453E-5</MEAN_MOTION_DOT><MEAN_MOTION_DDOT>0</MEAN_MOTION_DDOT></tleParameters></data></segment></body></omm>
<omm id="CCSDS_OMM_VERS" version="2.0">
<header><CREATION_DATE/><ORIGINATOR/></header><body><segment><metadata><OBJECT_NAME>ONEWEB-0026</OBJECT_NAME><OBJECT_ID>2020-008J</OBJECT_ID><CENTER_NAME>EARTH</CENTER_NAME><REF_FRAME>TEME</REF_FRAME><TIME_SYSTEM>UTC</TIME_SYSTEM><MEAN_ELEMENT_THEORY>SGP4</MEAN_ELEMENT_THEORY></metadata><data><meanElements><EPOCH>2024-07-31T22:29:39.102432</EPOCH><MEAN_MOTION>13.11415139</MEAN_MOTION><ECCENTRICITY>.0001956</ECCENTRICITY><INCLINATION>87.8998</INCLINATION><RA_OF_ASC_NODE>157.4675</RA_OF_ASC_NODE><ARG_OF_PERICENTER>83.3946</ARG_OF_PERICENTER><MEAN_ANOMALY>276.7405</MEAN_ANOMALY></meanElements><tleParameters><EPHEMERIS_TYPE>0</EPHEMERIS_TYPE><CLASSIFICATION_TYPE>U</CLASSIFICATION_TYPE><NORAD_CAT_ID>45139</NORAD_CAT_ID><ELEMENT_SET_NO>999</ELEMENT_SET_NO><REV_AT_EPOCH>22129</REV_AT_EPOCH><BSTAR>-.3759E-3</BSTAR><MEAN_MOTION_DOT>-.121E-5</MEAN_MOTION_DOT><MEAN_MOTION_DDOT>0</MEAN_MOTION_DDOT></tleParameters></data></segment></body></omm>
<omm id="CCSDS_OMM_VERS" version="2.0">
<header><CREATION_DATE/><ORIGINATOR/></header><body><segment><metadata><OBJECT_NAME>ONEWEB-0028</OBJECT_NAME><OBJECT_ID>2020-008K</OBJECT_ID><CENTER_NAME>EARTH</CENTER_NAME><REF_FRAME>TEME</REF_FRAME><TIME_SYSTEM>UTC</TIME_SYSTEM><MEAN_ELEMENT_THEORY>SGP4</MEAN_ELEMENT_THEORY></metadata><data><meanElements><EPOCH>2024-07-31T21:24:56.652768</EPOCH><MEAN_MOTION>13.11417906</MEAN_MOTION><ECCENTRICITY>.0002592</ECCENTRICITY><INCLINATION>87.8994</INCLINATION><RA_OF_ASC_NODE>157.5144</RA_OF_ASC_NODE><ARG_OF_PERICENTER>69.6827</ARG_OF_PERICENTER><MEAN_ANOMALY>290.4579</MEAN_ANOMALY></meanElements><tleParameters><EPHEMERIS_TYPE>0</EPHEMERIS_TYPE><CLASSIFICATION_TYPE>U</CLASSIFICATION_TYPE><NORAD_CAT_ID>45140</NORAD_CAT_ID><ELEMENT_SET_NO>999</ELEMENT_SET_NO><REV_AT_EPOCH>21880</REV_AT_EPOCH><BSTAR>-.71507E-3</BSTAR><MEAN_MOTION_DOT>-.241E-5</MEAN_MOTION_DOT><MEAN_MOTION_DDOT>0</MEAN_MOTION_DDOT></tleParameters></data></segment></body></omm>
<omm id="CCSDS_OMM_VERS" version="2.0">
<header><CREATION_DATE/><ORIGINATOR/></header><body><segment><metadata><OBJECT_NAME>ONEWEB-0032</OBJECT_NAME><OBJECT_ID>2020-008L</OBJECT_ID><CENTER_NAME>EARTH</CENTER_NAME><REF_FRAME>TEME</REF_FRAME><TIME_SYSTEM>UTC</TIME_SYSTEM><MEAN_ELEMENT_THEORY>SGP4</MEAN_ELEMENT_THEORY></metadata><data><meanElements><EPOCH>2024-07-31T22:07:31.499040</EPOCH><MEAN_MOTION>13.10375110</MEAN_MOTION><ECCENTRICITY>.0002139</ECCENTRICITY><INCLINATION>87.8965</INCLINATION><RA_OF_ASC_NODE>172.5958</RA_OF_ASC_NODE><ARG_OF_PERICENTER>77.1697</ARG_OF_PERICENTER><MEAN_ANOMALY>282.9670</MEAN_ANOMALY></meanElements><tleParameters><EPHEMERIS_TYPE>0</EPHEMERIS_TYPE><CLASSIFICATION_TYPE>U</CLASSIFICATION_TYPE><NORAD_CAT_ID>45141</NORAD_CAT_ID><ELEMENT_SET_NO>999</ELEMENT_SET_NO><REV_AT_EPOCH>21941</REV_AT_EPOCH><BSTAR>-.15277E-2</BSTAR><MEAN_MOTION_DOT>-.521E-5</MEAN_MOTION_DOT><MEAN_MOTION_DDOT>0</MEAN_MOTION_DDOT></tleParameters></data></segment></body></omm>

</ndm>
